NORAD_CAT_ID,OBJECT_NAME,OBJECT_TYPE,EPOCH,MEAN_MOTION,ECCENTRICITY,INCLINATION,RA_OF_ASC_NODE,ARG_OF_PERICENTER,MEAN_ANOMALY,BSTAR,MEAN_MOTION_DOT,MEAN_MOTION_DDOT,TLE_LINE0,TLE_LINE1,TLE_LINE2,SEMIMAJOR_AXIS,PERIOD,APOGEE,PERIGEE,DECAYED
55769.0,STARLINK-5584,PAYLOAD,2024-08-01 13:14:16,14.98339114,0.0003472,69.998,259.8559,269.6089,90.4672,7.4135e-05,7.92e-06,0.0,0 STARLINK-5584,1 55769U 23028AE  24214.55157469  .00000792  00000-0  74135-4 0  9994,2 55769  69.9980 259.8559 0003472 269.6089  90.4672 14.98339114 78886,6950.165,96.106,574.443,569.617,0.0
55769.0,STARLINK-5584,PAYLOAD,2024-08-02 05:15:37,14.98328607,0.0003364,69.9984,258.1724,270.0576,90.0197,1.4034e-06,-7.6e-07,0.0,0 STARLINK-5584,1 55769U 23028AE  24215.21918215 -.00000076  00000-0  14034-5 0  9991,2 55769  69.9984 258.1724 0003364 270.0576  90.0197 14.98328607 78976,6950.197,96.107,574.4,569.724,0.0
55769.0,STARLINK-5584,PAYLOAD,2024-08-02 13:16:17,14.98329879,0.0003307,69.9986,257.3313,268.9307,91.1473,2.0141e-05,1.47e-06,0.0,0 STARLINK-5584,1 55769U 23028AE  24215.55298085  .00000147  00000-0  20141-4 0  9997,2 55769  69.9986 257.3313 0003307 268.9307  91.1473 14.98329879 79037,6950.193,96.107,574.357,569.76,0.0
55769.0,STARLINK-5584,PAYLOAD,2024-08-02 19:40:49,14.98328692,0.000329,69.9986,256.6579,268.8935,91.1847,-6.454e-06,-1.7e-06,0.0,0 STARLINK-5584,1 55769U 23028AE  24215.82002219 -.00000170  00000-0 -64540-5 0  9999,2 55769  69.9986 256.6579 0003290 268.8935  91.1847 14.98328692 79071,6950.197,96.107,574.349,569.775,0.0
55769.0,STARLINK-5584,PAYLOAD,2024-08-03 05:17:38,14.98334142,0.0003321,69.9985,255.6477,269.4017,90.6762,-3.9239e-05,-5.61e-06,0.0,0 STARLINK-5584,1 55769U 23028AE  24216.22057917 -.00000561  00000-0 -39239-4 0  9999,2 55769  69.9985 255.6477 0003321 269.4017  90.6762 14.98334142 79122,6950.18,96.107,574.353,569.737,0.0
55769.0,STARLINK-5584,PAYLOAD,2024-08-03 11:42:10,14.98333283,0.0003341,69.9984,254.9744,269.4521,90.6255,-4.4331e-05,-6.22e-06,0.0,0 STARLINK-5584,1 55769U 23028AE  24216.48761925 -.00000622  00000-0 -44331-4 0  9995,2 55769  69.9984 254.9744 0003341 269.4521  90.6255 14.98333283 79179,6950.183,96.107,574.37,569.726,0.0
55769.0,STARLINK-5584,PAYLOAD,2024-08-03 19:42:50,14.98331258,0.0003341,69.9984,254.1326,269.8201,90.2575,-4.5453e-05,-6.35e-06,0.0,0 STARLINK-5584,1 55769U 23028AE  24216.82141997 -.00000635  00000-0 -45453-4 0  9994,2 55769  69.9984 254.1326 0003341 269.8201  90.2575 14.98331258 79223,6950.189,96.107,574.376,569.732,0.0
55769.0,STARLINK-5584,PAYLOAD,2024-08-04 03:43:31,14.98325654,0.0003363,69.9983,253.291,268.8171,91.2603,-3.291e-05,-4.86e-06,0.0,0 STARLINK-5584,1 55769U 23028AE  24217.15522331 -.00000486  00000-0 -32910-4 0  9994,2 55769  69.9983 253.2910 0003363 268.8171  91.2603 14.98325654 79260,6950.206,96.107,574.409,569.734,0.0
55769.0,STARLINK-5584,PAYLOAD,2024-08-04 13:20:19,14.98328321,0.0003348,69.9983,252.281,268.7131,91.3644,-5.4394e-07,-1e-06,0.0,0 STARLINK-5584,1 55769U 23028AE  24217.55578150 -.00000100  00000-0 -54394-6 0  9993,2 55769  69.9983 252.2810 0003348 268.7131  91.3644 14.98328321 79334,6950.198,96.107,574.39,569.736,0.0
55769.0,STARLINK-5584,PAYLOAD,2024-08-04 19:44:51,14.98330793,0.0003381,69.9982,251.6076,269.2887,90.7884,2.2612e-05,1.77e-06,0.0,0 STARLINK-5584,1 55769U 23028AE  24217.82281930  .00000177  00000-0  22612-4 0  9998,2 55769  69.9982 251.6076 0003381 269.2887  90.7884 14.98330793 79370,6950.19,96.107,574.405,569.706,0.0
55769.0,STARLINK-5584,PAYLOAD,2024-08-05 03:45:31,14.98333438,0.0003395,69.9981,250.7661,269.1349,90.9421,5.3541e-05,5.46e-06,0.0,0 STARLINK-5584,1 55769U 23028AE  24218.15661626  .00000546  00000-0  53541-4 0  9994,2 55769  69.9981 250.7661 0003395 269.1349  90.9421 14.98333438 79419,6950.182,96.107,574.407,569.688,0.0
55769.0,STARLINK-5584,PAYLOAD,2024-08-05 19:46:52,14.98329881,0.0003605,69.9974,249.0811,269.8782,90.1964,-1.3906e-05,-2.59e-06,0.0,0 STARLINK-5584,1 55769U 23028AE  24218.82421781 -.00000259  00000-0 -13906-4 0  9998,2 55769  69.9974 249.0811 0003605 269.8782  90.1964 14.98329881 79524,6950.193,96.107,574.564,569.553,0.0
55769.0,STARLINK-5584,PAYLOAD,2024-08-06 05:23:41,14.98322758,0.0003355,69.998,248.0727,268.7041,91.3734,-2.1529e-05,-3.5e-06,0.0,0 STARLINK-5584,1 55769U 23028AE  24219.22478423 -.00000350  00000-0 -21529-4 0  9990,2 55769  69.9980 248.0727 0003355 268.7041  91.3734 14.98322758 79573,6950.215,96.107,574.412,569.748,0.0
55769.0,STARLINK-5584,PAYLOAD,2024-08-06 11:48:13,14.98321004,0.0003343,69.9979,247.3994,267.5886,92.489,-4.0088e-05,-5.71e-06,0.0,0 STARLINK-5584,1 55769U 23028AE  24219.49182716 -.00000571  00000-0 -40088-4 0  9992,2 55769  69.9979 247.3994 0003343 267.5886  92.4890 14.98321004 79624,6950.221,96.108,574.409,569.762,0.0
55769.0,STARLINK-5584,PAYLOAD,2024-08-07 11:50:14,14.98329726,0.0003381,69.9982,244.8737,269.6483,90.4288,-4.0863e-05,-5.81e-06,0.0,0 STARLINK-5584,1 55769U 23028AE  24220.49322332 -.00000581  00000-0 -40863-4 0  9996,2 55769  69.9982 244.8737 0003381 269.6483  90.4288 14.98329726 79766,6950.194,96.107,574.409,569.709,0.0
55769.0,STARLINK-5584,PAYLOAD,2024-08-08 10:16:06,14.98330913,0.0003545,69.998,242.5176,271.6384,88.4369,0.00013101,1.471e-05,0.0,0 STARLINK-5584,1 55769U 23028AE  24221.42785773  .00001471  00000-0  13101-3 0  9993,2 55769  69.9980 242.5176 0003545 271.6384  88.4369 14.98330913 79915,6950.19,96.107,574.519,569.591,0.0
55769.0,STARLINK-5584,PAYLOAD,2024-08-09 03:53:35,14.98333059,0.0003566,69.9981,240.6657,275.105,84.9702,5.2381e-05,5.32e-06,0.0,0 STARLINK-5584,1 55769U 23028AE  24222.16221783  .00000532  00000-0  52381-4 0  9992,2 55769  69.9981 240.6657 0003566 275.1050  84.9702 14.98333059 80010,6950.183,96.107,574.527,569.57,0.0
55769.0,STARLINK-5584,PAYLOAD,2024-08-09 10:18:07,14.98333495,0.0003343,69.9985,239.9925,270.4931,89.5845,6.6196e-05,6.97e-06,0.0,0 STARLINK-5584,1 55769U 23028AE  24222.42925624  .00000697  00000-0  66196-4 0  9997,2 55769  69.9985 239.9925 0003343 270.4931  89.5845 14.98333495 80060,6950.182,96.107,574.371,569.724,0.0
55769.0,STARLINK-5584,PAYLOAD,2024-08-10 03:55:36,14.98329812,0.0003338,69.9986,238.1409,268.8442,91.2335,-7.1313e-05,-9.44e-06,0.0,0 STARLINK-5584,1 55769U 23028AE  24223.16362061 -.00000944  00000-0 -71313-4 0  9993,2 55769  69.9986 238.1409 0003338 268.8442  91.2335 14.98329812 80164,6950.193,96.107,574.378,569.738,0.0
55769.0,STARLINK-5584,PAYLOAD,2024-08-10 10:20:09,14.9832976,0.0003298,69.9987,237.4681,267.6107,92.4675,-7.0535e-05,-9.35e-06,0.0,0 STARLINK-5584,1 55769U 23028AE  24223.43066044 -.00000935  00000-0 -70535-4 0  9990,2 55769  69.9987 237.4681 0003298 267.6107  92.4675 14.98329760 80217,6950.194,96.107,574.351,569.766,0.0
55769.0,STARLINK-5584,PAYLOAD,2024-08-11 02:21:28,14.98338636,0.0003507,69.9984,235.7823,271.4602,88.6155,-2.6566e-05,-4.1e-06,0.0,0 STARLINK-5584,1 55769U 23028AE  24224.09825206 -.00000410  00000-0 -26566-4 0  9999,2 55769  69.9984 235.7823 0003507 271.4602  88.6155 14.98338636 80301,6950.166,96.106,574.469,569.594,0.0
55769.0,STARLINK-5584,PAYLOAD,2024-08-11 10:22:08,14.9834298,0.0003336,69.9981,234.9418,267.7974,92.2803,0.00010154,1.119e-05,0.0,0 STARLINK-5584,1 55769U 23028AE  24224.43204384  .00001119  00000-0  10154-3 0  9995,2 55769  69.9981 234.9418 0003336 267.7974  92.2803 14.98342980 80352,6950.153,96.106,574.336,569.699,0.0
55769.0,STARLINK-5584,PAYLOAD,2024-08-11 18:22:49,14.9833398,0.0003138,69.9995,234.1003,269.6923,90.3877,3.8281e-05,3.64e-06,0.0,0 STARLINK-5584,1 55769U 23028AE  24224.76585010  .00000364  00000-0  38281-4 0  9992,2 55769  69.9995 234.1003 0003138 269.6923  90.3877 14.98333980 80400,6950.181,96.107,574.227,569.865,0.0
55769.0,STARLINK-5584,PAYLOAD,2024-08-12 03:59:38,14.98326864,0.0003108,69.9974,233.0883,265.7484,94.332,1.152e-05,4.4e-07,0.0,0 STARLINK-5584,1 55769U 23028AE  24225.16641456  .00000044  00000-0  11520-4 0  9996,2 55769  69.9974 233.0883 0003108 265.7484  94.3320 14.98326864 80463,6950.203,96.107,574.228,569.907,0.0
55769.0,STARLINK-5584,PAYLOAD,2024-08-12 10:24:10,14.98324057,0.0003062,69.9986,232.4162,265.0904,94.9905,2.3326e-06,-6.5e-07,0.0,0 STARLINK-5584,1 55769U 23028AE  24225.43345740 -.00000065  00000-0  23326-5 0  9995,2 55769  69.9986 232.4162 0003062 265.0904  94.9905 14.98324057 80511,6950.211,96.107,574.204,569.948,0.0
55769.0,STARLINK-5584,PAYLOAD,2024-08-12 18:24:50,14.98332206,0.0003355,69.9983,231.5754,271.3906,88.6869,-4.6335e-06,-1.48e-06,0.0,0 STARLINK-5584,1 55769U 23028AE  24225.76725225 -.00000148  00000-0 -46335-5 0  9999,2 55769  69.9983 231.5754 0003355 271.3906  88.6869 14.98332206 80561,6950.186,96.107,574.383,569.719,0.0
55769.0,STARLINK-5584,PAYLOAD,2024-08-13 04:01:38,14.98335454,0.0003131,69.9986,230.5649,268.4264,91.6536,7.7342e-06,-1e-08,0.0,0 STARLINK-5584,1 55769U 23028AE  24226.16780847 -.00000001  00000-0  77342-5 0  9994,2 55769  69.9986 230.5649 0003131 268.4264  91.6536 14.98335454 80611,6950.176,96.107,574.217,569.865,0.0
55769.0,STARLINK-5584,PAYLOAD,2024-08-13 10:26:10,14.98342476,0.0003302,69.9982,229.8921,270.1996,89.8784,1.1923e-05,4.9e-07,0.0,0 STARLINK-5584,1 55769U 23028AE  24226.43484235  .00000049  00000-0  11923-4 0  9999,2 55769  69.9982 229.8921 0003302 270.1996  89.8784 14.98342476 80664,6950.154,96.106,574.314,569.724,0.0
55769.0,STARLINK-5584,PAYLOAD,2024-08-13 23:15:16,14.98316622,0.0003156,70.0005,228.5491,268.2838,91.7959,9.1251e-05,9.96e-06,0.0,0 STARLINK-5584,1 55769U 23028AE  24226.96893605  .00000996  00000-0  91251-4 0  9995,2 55769  70.0005 228.5491 0003156 268.2838  91.7959 14.98316622 80740,6950.234,96.108,574.293,569.906,0.0
55769.0,STARLINK-5584,PAYLOAD,2024-08-14 04:03:40,14.98318061,0.0002849,70.0005,228.0445,269.4344,90.6488,-0.00012857,-1.626e-05,0.0,0 STARLINK-5584,1 55769U 23028AE  24227.16922389 -.00001626  00000-0 -12857-3 0  9997,2 55769  70.0005 228.0445 0002849 269.4344  90.6488 14.98318061 80763,6950.23,96.108,574.075,570.115,0.0
